IRIDIUM 108             
1 41924U 17003H   26187.63993281  .00000134  00000+0  40687-4 0  9992
2 41924  86.3941  48.6237 0002260  85.0084 275.1369 14.34218216497890
IRIDIUM 160             
1 43569U 18061A   26187.66530544  .00000145  00000+0  44583-4 0  9997
2 43569  86.3944  48.6510 0002282  85.6549 274.4907 14.34218353416163
IRIDIUM 158             
1 43571U 18061C   26187.65896185  .00000186  00000+0  59249-4 0  9995
2 43571  86.3943  48.6137 0002132  85.1147 275.0292 14.34217564416159
IRIDIUM 155             
1 43573U 18061E   26187.64627493  .00000245  00000+0  80424-4 0  9995
2 43573  86.3941  48.5339 0002138  87.7088 272.4353 14.34217313416140
IRIDIUM 156             
1 43576U 18061H   26187.65261911  .00000190  00000+0  60726-4 0  9990
2 43576  86.3943  48.5877 0002032  90.1244 270.0185 14.34218513416169
IRIDIUM 164             
1 43577U 18061J   26187.70336087  .00000039  00000+0  66864-5 0  9996
2 43577  86.3944  48.6072 0002288  89.5855 270.5603 14.34218135416218
